NORAD_CAT_ID,OBJECT_NAME,OBJECT_TYPE,EPOCH,MEAN_MOTION,ECCENTRICITY,INCLINATION,RA_OF_ASC_NODE,ARG_OF_PERICENTER,MEAN_ANOMALY,BSTAR,MEAN_MOTION_DOT,MEAN_MOTION_DDOT,TLE_LINE0,TLE_LINE1,TLE_LINE2,SEMIMAJOR_AXIS,PERIOD,APOGEE,PERIGEE,DECAYED
53242.0,STARLINK-4056,PAYLOAD,2022-12-01 20:38:05,15.08836083,0.0001883,53.2171,158.4443,56.045,304.0721,0.0001066,1.409e-05,0.0,0 STARLINK-4056,1 53242U 22086A   22335.85978059  .00001409  00000-0  10660-3 0  9990,2 53242  53.2171 158.4443 0001883  56.0450 304.0721 15.08836083 20580,6917.892,95.438,541.06,538.455,0.0
53242.0,STARLINK-4056,PAYLOAD,2022-12-02 10:56:33,15.08839868,0.0001893,53.2173,155.7679,57.0477,303.0697,9.4447e-05,1.215e-05,0.0,0 STARLINK-4056,1 53242U 22086A   22336.45593981  .00001215  00000-0  94447-4 0  9995,2 53242  53.2173 155.7679 0001893  57.0477 303.0697 15.08839868 21175,6917.880999999999,95.438,541.055,538.436,0.0
53242.0,STARLINK-4056,PAYLOAD,2022-12-02 18:53:28,15.08842439,0.0001905,53.2172,154.281,57.667,302.4507,0.00010688,1.413e-05,0.0,0 STARLINK-4056,1 53242U 22086A   22336.78713765  .00001413  00000-0  10688-3 0  9999,2 53242  53.2172 154.2810 0001905  57.6670 302.4507 15.08842439 21227,6917.873000000001,95.437,541.056,538.42,0.0
53242.0,STARLINK-4056,PAYLOAD,2022-12-03 04:25:48,15.08831992,0.0001905,53.2168,152.4974,55.1034,305.0137,9.1339e-07,-2.74e-06,0.0,0 STARLINK-4056,1 53242U 22086A   22337.18458838 -.00000274  00000-0  91339-6 0  9991,2 53242  53.2168 152.4974 0001905  55.1034 305.0137 15.08831992 20780,6917.905,95.438,541.0880000000002,538.452,0.0
53242.0,STARLINK-4056,PAYLOAD,2022-12-03 12:22:44,15.08830156,0.0001891,53.2165,151.0103,55.3517,304.7653,-1.9006e-05,-5.91e-06,0.0,0 STARLINK-4056,1 53242U 22086A   22337.51579117 -.00000591  00000-0 -19006-4 0  9994,2 53242  53.2165 151.0103 0001891  55.3517 304.7653 15.08830156 21330,6917.91,95.438,541.0840000000002,538.467,0.0
53242.0,STARLINK-4056,PAYLOAD,2022-12-03 15:33:30,15.08830502,0.0001889,53.2167,150.4156,55.3441,304.7729,-1.6827e-05,-5.56e-06,0.0,0 STARLINK-4056,1 53242U 22086A   22337.64827146 -.00000556  00000-0 -16827-4 0  9995,2 53242  53.2167 150.4156 0001889  55.3441 304.7729 15.08830502 21357,6917.909000000002,95.438,541.081,538.4680000000002,0.0
53242.0,STARLINK-4056,PAYLOAD,2022-12-04 10:38:08,15.08837263,0.0001891,53.2171,146.8469,54.5257,305.5911,-3.1389e-05,-7.88e-06,0.0,0 STARLINK-4056,1 53242U 22086A   22338.44315061 -.00000788  00000-0 -31389-4 0  9999,2 53242  53.2171 146.8469 0001891  54.5257 305.5911 15.08837263 20977,6917.889,95.438,541.062,538.446,0.0
53242.0,STARLINK-4056,PAYLOAD,2022-12-04 12:13:31,15.08836345,0.0001881,53.2172,146.5495,54.6964,305.4204,-3.9886e-05,-9.23e-06,0.0,0 STARLINK-4056,1 53242U 22086A   22338.50939150 -.00000923  00000-0 -39886-4 0  9998,2 53242  53.2172 146.5495 0001881  54.6964 305.4204 15.08836345 21480,6917.892,95.438,541.058,538.455,0.0
53242.0,STARLINK-4056,PAYLOAD,2022-12-04 20:10:26,15.08839304,0.0001889,53.2175,145.0629,55.3598,304.7572,-1.0464e-05,-4.55e-06,0.0,0 STARLINK-4056,1 53242U 22086A   22338.84058951 -.00000455  00000-0 -10464-4 0  9997,2 53242  53.2175 145.0629 0001889  55.3598 304.7572 15.08839304 21539,6917.8830000000025,95.438,541.054,538.441,0.0
53242.0,STARLINK-4056,PAYLOAD,2022-12-05 12:04:18,15.0883741,0.0001856,53.2179,142.0892,57.0787,303.0384,0.00012501,1.702e-05,0.0,0 STARLINK-4056,1 53242U 22086A   22339.50298786  .00001702  00000-0  12501-3 0  9990,2 53242  53.2179 142.0892 0001856  57.0787 303.0384 15.08837410 21130,6917.888000000001,95.438,541.0369999999998,538.469,0.0
53242.0,STARLINK-4056,PAYLOAD,2022-12-05 20:01:13,15.08843001,0.0001884,53.2182,140.6025,57.4873,302.6301,0.00013792,1.908e-05,0.0,0 STARLINK-4056,1 53242U 22086A   22339.83418443  .00001908  00000-0  13792-3 0  9991,2 53242  53.2182 140.6025 0001884  57.4873 302.6301 15.08843001 21684,6917.871,95.437,541.04,538.433,0.0
53242.0,STARLINK-4056,PAYLOAD,2022-12-06 03:58:08,15.08847144,0.0001896,53.2182,139.1157,57.5488,302.5687,0.00015203,2.133e-05,0.0,0 STARLINK-4056,1 53242U 22086A   22340.16538110  .00002133  00000-0  15203-3 0  9993,2 53242  53.2182 139.1157 0001896  57.5488 302.5687 15.08847144 21238,6917.859,95.437,541.035,538.4119999999998,0.0
53242.0,STARLINK-4056,PAYLOAD,2022-12-06 10:19:41,15.088428400000002,0.0001905,53.2183,137.9264,58.7492,301.3687,0.00010905,1.448e-05,0.0,0 STARLINK-4056,1 53242U 22086A   22340.43034471  .00001448  00000-0  10905-3 0  9996,2 53242  53.2183 137.9264 0001905  58.7492 301.3687 15.08842840 21777,6917.871999999999,95.437,541.055,538.419,0.0
53242.0,STARLINK-4056,PAYLOAD,2022-12-06 16:41:14,15.08839779,0.0001942,53.2187,136.737,59.2427,300.8756,6.2371e-05,7.05e-06,0.0,0 STARLINK-4056,1 53242U 22086A   22340.69530826  .00000705  00000-0  62371-4 0  9999,2 53242  53.2187 136.7370 0001942  59.2427 300.8756 15.08839779 21814,6917.880999999999,95.438,541.09,538.403,0.0
53242.0,STARLINK-4056,PAYLOAD,2022-12-07 16:32:01,15.08840566,0.0001927,53.2187,132.2764,57.098,303.0197,-9.7597e-06,-4.44e-06,0.0,0 STARLINK-4056,1 53242U 22086A   22341.68890839 -.00000444  00000-0 -97597-5 0  9993,2 53242  53.2187 132.2764 0001927  57.0980 303.0197 15.08840566 21961,6917.879,95.438,541.077,538.411,0.0
53242.0,STARLINK-4056,PAYLOAD,2022-12-08 03:39:43,15.0884082,0.0001665999999999,53.2188,130.1989,40.8786,319.2331,-6.097899999999999e-05,-1.258e-05,0.0,0 STARLINK-4056,1 53242U 22086A   22342.15258697 -.00001258  00000-0 -60979-4 0  9993,2 53242  53.2188 130.1989 0001666  40.8786 319.2331 15.08840820 21537,6917.878000000002,95.438,540.895,538.59,0.0
53242.0,STARLINK-4056,PAYLOAD,2022-12-08 10:01:18,15.08811281,0.0002078,53.2191,129.0085,14.1969,345.9081,-0.00039689,-6.594e-05,0.0,0 STARLINK-4056,1 53242U 22086A   22342.41757387 -.00006594  00000-0 -39689-3 0  9993,2 53242  53.2191 129.0085 0002078  14.1969 345.9081 15.08811281 22077,6917.968000000003,95.439,541.271,538.396,0.0
53242.0,STARLINK-4056,PAYLOAD,2022-12-08 16:22:49,15.08828383,0.0001584,53.219,127.82,351.9778,8.1188,-0.00015642,-2.776e-05,0.0,0 STARLINK-4056,1 53242U 22086A   22342.68251419 -.00002776  00000-0 -15642-3 0  9998,2 53242  53.2190 127.8200 0001584 351.9778   8.1188 15.08828383 21618,6917.916,95.438,540.877,538.685,0.0
53242.0,STARLINK-4056,PAYLOAD,2022-12-09 09:52:02,15.08840819,0.0002003,53.2183,124.5508,37.7101,322.4031,0.00012999,1.781e-05,0.0,0 STARLINK-4056,1 53242U 22086A   22343.41113525  .00001781  00000-0  12999-3 0  9990,2 53242  53.2183 124.5508 0002003  37.7101 322.4031 15.08840819 22226,6917.878000000002,95.438,541.129,538.357,0.0
53242.0,STARLINK-4056,PAYLOAD,2022-12-09 16:13:36,15.08818931,0.0001926,53.2183,123.3618,36.2964,323.8158,-4.4883e-05,-1.002e-05,0.0,0 STARLINK-4056,1 53242U 22086A   22343.67611478 -.00001002  00000-0 -44883-4 0  9994,2 53242  53.2183 123.3618 0001926  36.2964 323.8158 15.08818931 21762,6917.945,95.439,541.1419999999998,538.477,0.0
53242.0,STARLINK-4056,PAYLOAD,2022-12-09 20:59:44,15.08832368,0.0001530999999999,53.2184,122.4694,17.5968,342.5077,0.00010787,1.429e-05,0.0,0 STARLINK-4056,1 53242U 22086A   22343.87482335  .00001429  00000-0  10787-3 0  9990,2 53242  53.2184 122.4694 0001531  17.5968 342.5077 15.08832368 21796,6917.904,95.438,540.828,538.71,0.0
53242.0,STARLINK-4056,PAYLOAD,2022-12-10 14:29:01,15.087906599999998,0.0001520999999999,53.2195,119.198,332.6018,27.4893,0.00049204,7.541e-05,0.0,0 STARLINK-4056,1 53242U 22086A   22344.60348607  .00007541  00000-0  49204-3 0  9992,2 53242  53.2195 119.1980 0001521 332.6018  27.4893 15.08790660 22407,6918.031,95.441,540.948,538.844,0.0
53242.0,STARLINK-4056,PAYLOAD,2022-12-11 12:44:23,15.08832968,0.0001809,53.2211,115.0368,49.5733,310.5417,0.00023496,3.453e-05,0.0,0 STARLINK-4056,1 53242U 22086A   22345.53082901  .00003453  00000-0  23496-3 0  9990,2 53242  53.2211 115.0368 0001809  49.5733 310.5417 15.08832968 22044,6917.901999999999,95.438,541.018,538.515,0.0
53242.0,STARLINK-4056,PAYLOAD,2022-12-11 19:05:56,15.08828295,0.000171,53.2184,113.841,45.9336,314.1797,0.00017834,2.55e-05,0.0,0 STARLINK-4056,1 53242U 22086A   22345.79579475  .00002550  00000-0  17834-3 0  9991,2 53242  53.2184 113.8410 0001710  45.9336 314.1797 15.08828295 22080,6917.916,95.438,540.964,538.5980000000002,0.0
53242.0,STARLINK-4056,PAYLOAD,2022-12-12 12:35:11,15.08835912,0.0001656,53.2191,110.5696,51.5418,308.5722,0.00010767,1.426e-05,0.0,0 STARLINK-4056,1 53242U 22086A   22346.52443771  .00001426  00000-0  10767-3 0  9991,2 53242  53.2191 110.5696 0001656  51.5418 308.5722 15.08835912 22697,6917.893,95.438,540.903,538.612,0.0
53242.0,STARLINK-4056,PAYLOAD,2022-12-13 09:15:11,15.08852137,0.0001740999999999,53.2181,106.7045,51.6471,308.4677,-0.00013583,-2.45e-05,0.0,0 STARLINK-4056,1 53242U 22086A   22347.38554717 -.00002450  00000-0 -13583-3 0  9998,2 53242  53.2181 106.7045 0001741  51.6471 308.4677 15.08852137 22322,6917.843000000003,95.437,540.913,538.504,0.0
53242.0,STARLINK-4056,PAYLOAD,2022-12-14 01:09:03,15.08841947,0.0001846,53.2178,103.731,44.6986,315.4155,7.1278e-05,8.47e-06,0.0,0 STARLINK-4056,1 53242U 22086A   22348.04795164  .00000847  00000-0  71278-4 0  9997,2 53242  53.2178 103.7310 0001846  44.6986 315.4155 15.08841947 22426,6917.874,95.437,541.016,538.462,0.0
53242.0,STARLINK-4056,PAYLOAD,2022-12-14 09:05:59,15.08837236,0.0001895,53.2172,102.2428,50.1093,310.0066,7.695e-05,9.37e-06,0.0,0 STARLINK-4056,1 53242U 22086A   22348.37915657  .00000937  00000-0  76950-4 0  9996,2 53242  53.2172 102.2428 0001895  50.1093 310.0066 15.08837236 22472,6917.889,95.438,541.065,538.443,0.0
53242.0,STARLINK-4056,PAYLOAD,2022-12-14 13:52:08,15.08834996,0.0001866,53.2181,101.3515,47.9845,312.1306,5.058600000000001e-05,5.17e-06,0.0,0 STARLINK-4056,1 53242U 22086A   22348.57787924  .00000517  00000-0  50586-4 0  9993,2 53242  53.2181 101.3515 0001866  47.9845 312.1306 15.08834996 23006,6917.896,95.438,541.052,538.47,0.0
